{
    "links": {
        "self": "http://www.neowsapp.com/rest/v1/neo/3557336?api_key=iIulBulltgU6a56xZRHN4H3l9WmuAYTsLGpBGhQ2"
    },
    "id": "3557336",
    "neo_reference_id": "3557336",
    "name": "(2011 CJ33)",
    "designation": "2011 CJ33",
    "nasa_jpl_url": "http://ssd.jpl.nasa.gov/sbdb.cgi?sstr=3557336",
    "absolute_magnitude_h": 26.2,
    "estimated_diameter": {
        "kilometers": {
            "estimated_diameter_min": 0.0152951935,
            "estimated_diameter_max": 0.0342010925
        },
        "meters": {
            "estimated_diameter_min": 15.2951935344,
            "estimated_diameter_max": 34.201092472
        },
        "miles": {
            "estimated_diameter_min": 0.0095039897,
            "estimated_diameter_max": 0.021251567
        },
        "feet": {
            "estimated_diameter_min": 50.1810827555,
            "estimated_diameter_max": 112.2083122258
        }
    },
    "is_potentially_hazardous_asteroid": false,
    "close_approach_data": [
        {
            "close_approach_date": "2011-02-07",
            "close_approach_date_full": "2011-Feb-07 07:18",
            "epoch_date_close_approach": 1297063080000,
            "relative_velocity": {
                "kilometers_per_second": "7.0383769856",
                "kilometers_per_hour": "25338.1571480677",
                "miles_per_hour": "15744.1454790313"
            },
            "miss_distance": {
                "astronomical": "0.0448089913",
                "lunar": "17.4306976157",
                "kilometers": "6703329.655328531",
                "miles": "4165255.9023384878"
            },
            "orbiting_body": "Earth"
        }
    ],
    "orbital_data": {
        "orbit_id": "5",
        "orbit_determination_date": "2017-04-06 08:54:31",
        "first_observation_date": "2011-02-08",
        "last_observation_date": "2011-02-09",
        "data_arc_in_days": 1,
        "observations_used": 13,
        "orbit_uncertainty": "9",
        "minimum_orbit_intersection": ".0448085",
        "jupiter_tisserand_invariant": "3.708",
        "epoch_osculation": "2455601.5",
        "eccentricity": ".4782681137608925",
        "semi_major_axis": "1.974258948948249",
        "inclination": "7.736867994726342",
        "ascending_node_longitude": "139.9217648496867",
        "orbital_period": "1013.221973752454",
        "perihelion_distance": "1.030033845359208",
        "perihelion_argument": "354.1247864920263",
        "aphelion_distance": "2.918484052537291",
        "perihelion_time": "2455596.383348383615",
        "mean_anomaly": "1.817957594303643",
        "mean_motion": ".3553022035899448",
        "equinox": "J2000",
        "orbit_class": {
            "orbit_class_type": "AMO",
            "orbit_class_description": "Near-Earth asteroid orbits similar to that of 1221 Amor",
            "orbit_class_range": "1.017 AU < q (perihelion) < 1.3 AU"
        }
    },
    "is_sentry_object": false
}